NORAD_CAT_ID,OBJECT_NAME,OBJECT_TYPE,EPOCH,MEAN_MOTION,ECCENTRICITY,INCLINATION,RA_OF_ASC_NODE,ARG_OF_PERICENTER,MEAN_ANOMALY,BSTAR,MEAN_MOTION_DOT,MEAN_MOTION_DDOT,TLE_LINE0,TLE_LINE1,TLE_LINE2,SEMIMAJOR_AXIS,PERIOD,APOGEE,PERIGEE,DECAYED
55931.0,STARLINK-5897,PAYLOAD,2023-12-29 14:00:56,14.98331318,0.0002677,69.9999,164.1506,266.754,93.3313,-2.8147e-07,-9.6e-07,0.0,0 STARLINK-5897,1 55931U 23037T   23363.58398778 -.00000096  00000-0 -28147-6 0  9995,2 55931  69.9999 164.1506 0002677 266.7540  93.3313 14.98331318 43494,6950.189,96.107,573.914,570.193,0.0
55931.0,STARLINK-5897,PAYLOAD,2023-12-29 18:49:20,14.98332086,0.0002668,70.0,163.6458,266.5079,93.5775,1.0321e-05,3e-07,0.0,0 STARLINK-5897,1 55931U 23037T   23363.78426678  .00000030  00000-0  10321-4 0  9997,2 55931  70.0000 163.6458 0002668 266.5079  93.5775 14.98332086 43863,6950.186,96.107,573.906,570.197,0.0
55931.0,STARLINK-5897,PAYLOAD,2023-12-29 20:25:28,14.9833235,0.0002674,70.0,163.4775,266.9483,93.137,1.2458e-05,5.6e-07,0.0,0 STARLINK-5897,1 55931U 23037T   23363.85102645  .00000056  00000-0  12458-4 0  9991,2 55931  70.0000 163.4775 0002674 266.9483  93.1370 14.98332350 43538,6950.186,96.107,573.909,570.192,0.0
55931.0,STARLINK-5897,PAYLOAD,2023-12-30 14:02:57,14.98329017,0.0002669,70.0002,161.6271,264.8616,95.2238,-4.4341e-06,-1.46e-06,0.0,0 STARLINK-5897,1 55931U 23037T   23364.58538869 -.00000146  00000-0 -44341-5 0  9992,2 55931  70.0002 161.6271 0002669 264.8616  95.2238 14.98329017 43644,6950.196,96.107,573.916,570.206,0.0
55931.0,STARLINK-5897,PAYLOAD,2023-12-30 18:51:21,14.98329946,0.0002661,70.0002,161.1221,264.5709,95.5147,6.5595e-06,-1.5e-07,0.0,0 STARLINK-5897,1 55931U 23037T   23364.78566778 -.00000015  00000-0  65595-5 0  9992,2 55931  70.0002 161.1221 0002661 264.5709  95.5147 14.98329946 44011,6950.193,96.107,573.908,570.209,0.0
55931.0,STARLINK-5897,PAYLOAD,2023-12-30 20:27:29,14.98330293,0.0002722,70.0,160.9532,268.5189,91.5658,1.0132e-05,2.8e-07,0.0,0 STARLINK-5897,1 55931U 23037T   23364.85242754  .00000028  00000-0  10132-4 0  9994,2 55931  70.0000 160.9532 0002722 268.5189  91.5658 14.98330293 43687,6950.192,96.107,573.949,570.165,0.0
55931.0,STARLINK-5897,PAYLOAD,2023-12-31 18:53:22,14.98330585,0.0002732,70.0001,158.597,268.9948,91.0898,-2.0668e-05,-3.4e-06,0.0,0 STARLINK-5897,1 55931U 23037T   23365.78706804 -.00000340  00000-0 -20668-4 0  9992,2 55931  70.0001 158.5970 0002732 268.9948  91.0898 14.98330585 44164,6950.191,96.107,573.955,570.157,0.0
55931.0,STARLINK-5897,PAYLOAD,2023-12-31 20:29:30,14.98330798,0.0002731,70.0001,158.4288,269.023,91.0616,-1.789e-05,-3.06e-06,0.0,0 STARLINK-5897,1 55931U 23037T   23365.85382777 -.00000306  00000-0 -17890-4 0  9994,2 55931  70.0001 158.4288 0002731 269.0230  91.0616 14.98330798 43837,6950.19,96.107,573.954,570.157,0.0
55931.0,STARLINK-5897,PAYLOAD,2024-01-01 14:06:59,14.98331641,0.0002771,70.0,156.5771,270.1816,89.9026,1.144e-05,4.4e-07,0.0,0 STARLINK-5897,1 55931U 23037T   24001.58818603  .00000044  00000-0  11440-4 0  9996,2 55931  70.0000 156.5771 0002771 270.1816  89.9026 14.98331641 43940,6950.188,96.107,573.979,570.127,0.0
55931.0,STARLINK-5897,PAYLOAD,2024-01-01 18:55:23,14.98331701,0.000277,70.0001,156.0722,270.2779,89.8062,1.2482e-05,5.6e-07,0.0,0 STARLINK-5897,1 55931U 23037T   24001.78846576  .00000056  00000-0  12482-4 0  9998,2 55931  70.0001 156.0722 0002770 270.2779  89.8062 14.98331701 44318,6950.188,96.107,573.978,570.127,0.0
55931.0,STARLINK-5897,PAYLOAD,2024-01-01 20:31:31,14.98332857,0.0002773,70.0,155.9035,270.6259,89.4582,2.4571e-05,2e-06,0.0,0 STARLINK-5897,1 55931U 23037T   24001.85522463  .00000200  00000-0  24571-4 0  9995,2 55931  70.0000 155.9035 0002773 270.6259  89.4582 14.98332857 43980,6950.184,96.107,573.976,570.122,0.0
55931.0,STARLINK-5897,PAYLOAD,2024-01-02 14:09:00,14.98329417,0.000274,70.0002,154.0521,269.5764,90.5081,9.8601e-06,2.5e-07,0.0,0 STARLINK-5897,1 55931U 23037T   24002.58958640  .00000025  00000-0  98601-5 0  9997,2 55931  70.0002 154.0521 0002740 269.5764  90.5081 14.98329417 44092,6950.195,96.107,573.964,570.155,0.0
55931.0,STARLINK-5897,PAYLOAD,2024-01-02 18:57:24,14.98330015,0.0002733,70.0003,153.5472,269.7211,90.3635,1.5983e-05,9.8e-07,0.0,0 STARLINK-5897,1 55931U 23037T   24002.78986585  .00000098  00000-0  15983-4 0  9999,2 55931  70.0003 153.5472 0002733 269.7211  90.3635 14.98330015 44463,6950.193,96.107,573.957,570.158,0.0
55931.0,STARLINK-5897,PAYLOAD,2024-01-03 14:11:01,14.98326771,0.0002701,70.0004,151.5274,263.9462,96.1389,-4.7306e-05,-6.57e-06,0.0,0 STARLINK-5897,1 55931U 23037T   24003.59098957 -.00000657  00000-0 -47306-4 0  9993,2 55931  70.0004 151.5274 0002701 263.9462  96.1389 14.98326771 44241,6950.203,96.107,573.945,570.191,0.0
55931.0,STARLINK-5897,PAYLOAD,2024-01-03 18:59:25,14.98326354,0.0002713,70.0005,151.0226,264.3091,95.7758,-4.9962e-05,-6.89e-06,0.0,0 STARLINK-5897,1 55931U 23037T   24003.79127032 -.00000689  00000-0 -49962-4 0  9997,2 55931  70.0005 151.0226 0002713 264.3091  95.7758 14.98326354 44613,6950.204,96.107,573.955,570.184,0.0
55931.0,STARLINK-5897,PAYLOAD,2024-01-04 14:13:02,14.98329054,0.0002846,70.0003,149.0026,264.7626,95.3209,-4.911e-06,-1.52e-06,0.0,0 STARLINK-5897,1 55931U 23037T   24004.59238752 -.00000152  00000-0 -49110-5 0  9999,2 55931  70.0003 149.0026 0002846 264.7626  95.3209 14.98329054 44393,6950.196,96.107,574.039,570.083,0.0
55931.0,STARLINK-5897,PAYLOAD,2024-01-04 19:01:26,14.98329439,0.0002973,70.0001,148.4974,267.7641,92.3178,1.8458e-05,1.27e-06,0.0,0 STARLINK-5897,1 55931U 23037T   24004.79266701  .00000127  00000-0  18458-4 0  9996,2 55931  70.0001 148.4974 0002973 267.7641  92.3178 14.98329439 44767,6950.195,96.107,574.126,569.993,0.0
55931.0,STARLINK-5897,PAYLOAD,2024-01-05 14:15:03,14.98327578,0.0002804,70.0013,146.4793,260.755,99.3292,4.9123e-05,4.93e-06,0.0,0 STARLINK-5897,1 55931U 23037T   24005.59378694  .00000493  00000-0  49123-4 0  9999,2 55931  70.0013 146.4793 0002804 260.7550  99.3292 14.98327578 44544,6950.2,96.107,574.014,570.117,0.0
55931.0,STARLINK-5897,PAYLOAD,2024-01-05 19:03:27,14.98329046,0.0002828,70.0008,145.9738,263.95,96.1337,5.7236e-05,5.9e-06,0.0,0 STARLINK-5897,1 55931U 23037T   24005.79406627  .00000590  00000-0  57236-4 0  9991,2 55931  70.0008 145.9738 0002828 263.9500  96.1337 14.98329046 44915,6950.196,96.107,574.026,570.095,0.0
55931.0,STARLINK-5897,PAYLOAD,2024-01-06 12:40:55,14.98331509,0.0002901,70.0008,144.1229,262.4175,97.6655,1.6586e-05,1.05e-06,0.0,0 STARLINK-5897,1 55931U 23037T   24006.52842517  .00000105  00000-0  16586-4 0  9990,2 55931  70.0008 144.1229 0002901 262.4175  97.6655 14.98331509 44685,6950.188,96.107,574.069,570.037,0.0
55931.0,STARLINK-5897,PAYLOAD,2024-01-06 19:05:27,14.98333407,0.0002818,70.0006,143.4494,260.8292,99.2548,4.5341e-05,4.48e-06,0.0,0 STARLINK-5897,1 55931U 23037T   24006.79546270  .00000448  00000-0  45341-4 0  9997,2 55931  70.0006 143.4494 0002818 260.8292  99.2548 14.98333407 45069,6950.182,96.107,574.006,570.089,0.0
55931.0,STARLINK-5897,PAYLOAD,2024-01-07 12:42:56,14.98329139,0.0002782,70.001,141.5974,264.7218,95.3623,-1.614e-05,-2.86e-06,0.0,0 STARLINK-5897,1 55931U 23037T   24007.52982579 -.00000286  00000-0 -16140-4 0  9992,2 55931  70.0010 141.5974 0002782 264.7218  95.3623 14.98329139 44839,6950.196,96.107,573.994,570.127,0.0
55931.0,STARLINK-5897,PAYLOAD,2024-01-07 19:07:29,14.98330106,0.0002785,70.0011,140.9244,265.1985,94.8856,-5.7191e-06,-1.61e-06,0.0,0 STARLINK-5897,1 55931U 23037T   24007.79686491 -.00000161  00000-0 -57191-5 0  9999,2 55931  70.0011 140.9244 0002785 265.1985  94.8856 14.98330106 45213,6950.193,96.107,573.993,570.122,0.0
55931.0,STARLINK-5897,PAYLOAD,2024-01-08 14:21:05,14.98331895,0.0002822,70.001,138.9043,266.8447,93.2389,-8.2626e-06,-1.92e-06,0.0,0 STARLINK-5897,1 55931U 23037T   24008.59798261 -.00000192  00000-0 -82626-5 0  9992,2 55931  70.0010 138.9043 0002822 266.8447  93.2389 14.98331895 44993,6950.187,96.107,574.013,570.091,0.0
55931.0,STARLINK-5897,PAYLOAD,2024-01-08 17:33:21,14.98332551,0.0002819,70.0011,138.5677,267.4491,92.6345,-4.0818e-07,-9.8e-07,0.0,0 STARLINK-5897,1 55931U 23037T   24008.73150179 -.00000098  00000-0 -40818-6 0  9991,2 55931  70.0011 138.5677 0002819 267.4491  92.6345 14.98332551 45014,6950.185,96.107,574.009,570.091,0.0
55931.0,STARLINK-5897,PAYLOAD,2024-01-09 11:10:50,14.98325227,0.0002821,70.0011,136.7163,266.0946,93.989,-2.549e-05,-3.97e-06,0.0,0 STARLINK-5897,1 55931U 23037T   24009.46586691 -.00000397  00000-0 -25490-4 0  9993,2 55931  70.0011 136.7163 0002821 266.0946  93.9890 14.98325227 45467,6950.208,96.107,574.033,570.112,0.0
55931.0,STARLINK-5897,PAYLOAD,2024-01-09 14:23:07,14.98323961,0.0002838,70.001,136.3796,265.0009,95.0826,-3.9389e-05,-5.63e-06,0.0,0 STARLINK-5897,1 55931U 23037T   24009.59938840 -.00000563  00000-0 -39389-4 0  9991,2 55931  70.0010 136.3796 0002838 265.0009  95.0826 14.98323961 45141,6950.212,96.107,574.049,570.104,0.0
55931.0,STARLINK-5897,PAYLOAD,2024-01-09 17:35:23,14.98325348,0.0002814,70.001,136.043,264.5285,95.5553,-2.2358e-05,-3.6e-06,0.0,0 STARLINK-5897,1 55931U 23037T   24009.73290737 -.00000360  00000-0 -22358-4 0  9996,2 55931  70.0010 136.0430 0002814 264.5285  95.5553 14.98325348 45162,6950.207,96.107,574.028,570.116,0.0
55931.0,STARLINK-5897,PAYLOAD,2024-01-10 11:12:51,14.98330992,0.0002896,70.0008,134.1912,264.521,95.5619,-2.4674e-06,-1.22e-06,0.0,0 STARLINK-5897,1 55931U 23037T   24010.46726332 -.00000122  00000-0 -24674-5 0  9993,2 55931  70.0008 134.1912 0002896 264.5210  95.5619 14.98330992 45615,6950.19,96.107,574.068,570.042,0.0
55931.0,STARLINK-5897,PAYLOAD,2024-01-11 11:14:52,14.98323844,0.0002722,70.0013,131.668,258.2862,101.7992,2.1892e-05,1.68e-06,0.0,0 STARLINK-5897,1 55931U 23037T   24011.46866701  .00000168  00000-0  21892-4 0  9995,2 55931  70.0013 131.6680 0002722 258.2862 101.7992 14.98323844 45764,6950.212,96.107,573.969,570.185,0.0
